STARLINK-5642           
1 55430U 23014AR  26068.50938534 -.00000285  00000+0 -16058-4 0  9996
2 55430  69.9989 104.8346 0002864 270.1716  89.9115 14.98330981171041
HYPSO-2                 
1 60531U 24149BR  26068.64186663  .00003981  00000+0  33980-3 0  9993
2 60531  97.6894 146.3679 0001390  74.8032 285.3344 14.98259029 85149
